COMMENT,ORIGINATOR,NORAD_CAT_ID,OBJECT_NAME,OBJECT_TYPE,CLASSIFICATION_TYPE,INTLDES,EPOCH,EPOCH_MICROSECONDS,MEAN_MOTION,ECCENTRICITY,INCLINATION,RA_OF_ASC_NODE,ARG_OF_PERICENTER,MEAN_ANOMALY,EPHEMERIS_TYPE,ELEMENT_SET_NO,REV_AT_EPOCH,BSTAR,MEAN_MOTION_DOT,MEAN_MOTION_DDOT,FILE,TLE_LINE0,TLE_LINE1,TLE_LINE2,OBJECT_ID,OBJECT_NUMBER,SEMIMAJOR_AXIS,PERIOD,APOGEE,PERIGEE,DECAYED
"GENERATED VIA SPACETRACK.ORG API","18 SPCS","48883","SPACEBEE-100","PAYLOAD","U","21059E","2023-05-30 08:53:26","876544","15.30742341","0.0005358","97.5914","286.7763","333.1743","26.9219","0","999","10666","0.00078433","0.00023281","0","3920920","0 SPACEBEE-100","1 48883U 21059E   23150.37044996  .00023281  00000-0  78433-3 0  9995","2 48883  97.5914 286.7763 0005358 333.1743  26.9219 15.30742341106660","2021-059E","48883","6851.733","94.072","477.269","469.927","0"
"GENERATED VIA SPACETRACK.ORG API","18 SPCS","48883","SPACEBEE-100","PAYLOAD","U","21059E","2023-05-30 21:26:30","14016","15.30769249","0.0005313","97.5915","287.3111","330.6156","29.4785","0","999","10674","0.00082206","0.00024428","0","3921192","0 SPACEBEE-100","1 48883U 21059E   23150.89340294  .00024428  00000-0  82206-3 0  9999","2 48883  97.5915 287.3111 0005313 330.6156  29.4785 15.30769249106747","2021-059E","48883","6851.653","94.070","477.158","469.878","0"
"GENERATED VIA SPACETRACK.ORG API","18 SPCS","48883","SPACEBEE-100","PAYLOAD","U","21059E","2023-05-31 03:43:01","258752","15.30783602","0.0005336","97.5915","287.5786","329.6678","30.4252","0","999","10678","0.00089872","0.00026734","0","3921362","0 SPACEBEE-100","1 48883U 21059E   23151.15487568  .00026734  00000-0  89872-3 0  9993","2 48883  97.5915 287.5786 0005336 329.6678  30.4252 15.30783602106783","2021-059E","48883","6851.610","94.069","477.131","469.819","0"
"GENERATED VIA SPACETRACK.ORG API","18 SPCS","48883","SPACEBEE-100","PAYLOAD","U","21059E","2023-05-31 08:25:24","560544","15.30794979","0.0005355","97.5914","287.7793","328.8401","31.2521","0","999","10681","0.00091138","0.00027122","0","3921767","0 SPACEBEE-100","1 48883U 21059E   23151.35097871  .00027122  00000-0  91138-3 0  9999","2 48883  97.5914 287.7793 0005355 328.8401  31.2521 15.30794979106819","2021-059E","48883","6851.576","94.069","477.110","469.772","0"
"GENERATED VIA SPACETRACK.ORG API","18 SPCS","48883","SPACEBEE-100","PAYLOAD","U","21059E","2023-05-31 22:32:33","705600","15.30829245","0.0005331","97.5917","288.3808","326.0693","34.0206","0","999","10690","0.0009329","0.00027797","0","3922037","0 SPACEBEE-100","1 48883U 21059E   23151.93927900  .00027797  00000-0  93290-3 0  9997","2 48883  97.5917 288.3808 0005331 326.0693  34.0206 15.30829245106909","2021-059E","48883","6851.474","94.067","476.991","469.686","0"
"GENERATED VIA SPACETRACK.ORG API","18 SPCS","48883","SPACEBEE-100","PAYLOAD","U","21059E","2023-06-01 07:57:19","178208","15.30854374","0.0005378","97.5919","288.7821","324.6119","35.4764","0","999","10696","0.0010473","0.00031254","0","3922365","0 SPACEBEE-100","1 48883U 21059E   23152.33147197  .00031254  00000-0  10473-2 0  9998","2 48883  97.5919 288.7821 0005378 324.6119  35.4764 15.30854374106969","2021-059E","48883","6851.399","94.065","476.949","469.579","0"
"GENERATED VIA SPACETRACK.ORG API","18 SPCS","48883","SPACEBEE-100","PAYLOAD","U","21059E","2023-06-01 07:57:19","178208","15.30854374","0.0005378","97.5919","288.7821","324.6119","35.4764","0","999","10696","0.0010473","0.00031254","0","3922648","0 SPACEBEE-100","1 48883U 21059E   23152.33147197  .00031254  00000-0  10473-2 0  9998","2 48883  97.5919 288.7821 0005378 324.6119  35.4764 15.30854374106969","2021-059E","48883","6851.399","94.065","476.949","469.579","0"
"GENERATED VIA SPACETRACK.ORG API","18 SPCS","48883","SPACEBEE-100","PAYLOAD","U","21059E","2023-06-02 07:29:10","436640","15.30911693","0.0005264","97.5921","289.7845","320.5882","39.4975","0","999","10711","0.00087854","0.00026233","0","3923342","0 SPACEBEE-100","1 48883U 21059E   23153.31192635  .00026233  00000-0  87854-3 0  9993","2 48883  97.5921 289.7845 0005264 320.5882  39.4975 15.30911693107119","2021-059E","48883","6851.228","94.062","476.699","469.486","0"
"GENERATED VIA SPACETRACK.ORG API","18 SPCS","48883","SPACEBEE-100","PAYLOAD","U","21059E","2023-06-02 07:29:10","436640","15.30911693","0.0005264","97.5921","289.7845","320.5882","39.4975","0","999","10711","0.00087854","0.00026233","0","3923670","0 SPACEBEE-100","1 48883U 21059E   23153.31192635  .00026233  00000-0  87854-3 0  9993","2 48883  97.5921 289.7845 0005264 320.5882  39.4975 15.30911693107119","2021-059E","48883","6851.228","94.062","476.699","469.486","0"
"GENERATED VIA SPACETRACK.ORG API","18 SPCS","48883","SPACEBEE-100","PAYLOAD","U","21059E","2023-06-03 08:35:05","882208","15.30966706","0.0005357","97.5926","290.8545","316.6188","43.4631","0","999","10727","0.00088412","0.00026447","0","3923962","0 SPACEBEE-100","1 48883U 21059E   23154.35770697  .00026447  00000-0  88412-3 0  9996","2 48883  97.5926 290.8545 0005357 316.6188  43.4631 15.30966706107278","2021-059E","48883","6851.064","94.058","476.599","469.259","0"
"GENERATED VIA SPACETRACK.ORG API","18 SPCS","48883","SPACEBEE-100","PAYLOAD","U","21059E","2023-06-03 08:35:05","882208","15.30966706","0.0005357","97.5926","290.8545","316.6188","43.4631","0","999","10727","0.00088412","0.00026447","0","3924076","0 SPACEBEE-100","1 48883U 21059E   23154.35770697  .00026447  00000-0  88412-3 0  9996","2 48883  97.5926 290.8545 0005357 316.6188  43.4631 15.30966706107278","2021-059E","48883","6851.064","94.058","476.599","469.259","0"
"GENERATED VIA SPACETRACK.ORG API","18 SPCS","48883","SPACEBEE-100","PAYLOAD","U","21059E","2023-06-03 21:08:02","473152","15.30992266","0.0005383","97.593","291.3892","314.1217","45.958","0","999","10735","0.00088049","0.00026358","0","3924324","0 SPACEBEE-100","1 48883U 21059E   23154.88058418  .00026358  00000-0  88049-3 0  9991","2 48883  97.5930 291.3892 0005383 314.1217  45.9580 15.30992266107358","2021-059E","48883","6850.988","94.057","476.540","469.165","0"
"GENERATED VIA SPACETRACK.ORG API","18 SPCS","48883","SPACEBEE-100","PAYLOAD","U","21059E","2023-06-04 14:23:19","27392","15.31026872","0.0005429","97.5931","292.1252","311.2299","48.8473","0","999","10746","0.00088494","0.00026521","0","3924842","0 SPACEBEE-100","1 48883U 21059E   23155.59952578  .00026521  00000-0  88494-3 0  9996","2 48883  97.5931 292.1252 0005429 311.2299  48.8473 15.31026872107464","2021-059E","48883","6850.884","94.055","476.469","469.030","0"
"GENERATED VIA SPACETRACK.ORG API","18 SPCS","48883","SPACEBEE-100","PAYLOAD","U","21059E","2023-06-04 14:23:19","27392","15.31026872","0.0005429","97.5931","292.1252","311.2299","48.8473","0","999","10746","0.00088494","0.00026521","0","3925058","0 SPACEBEE-100","1 48883U 21059E   23155.59952578  .00026521  00000-0  88494-3 0  9996","2 48883  97.5931 292.1252 0005429 311.2299  48.8473 15.31026872107464","2021-059E","48883","6850.884","94.055","476.469","469.030","0"
"GENERATED VIA SPACETRACK.ORG API","18 SPCS","48883","SPACEBEE-100","PAYLOAD","U","21059E","2023-06-04 22:13:53","292000","15.31046721","0.0005403","97.5933","292.4597","309.9709","50.1057","0","999","10751","0.00092844","0.00027851","0","3925173","0 SPACEBEE-100","1 48883U 21059E   23155.92631125  .00027851  00000-0  92844-3 0  9996","2 48883  97.5933 292.4597 0005403 309.9709  50.1057 15.31046721107518","2021-059E","48883","6850.825","94.053","476.392","468.989","0"
"GENERATED VIA SPACETRACK.ORG API","18 SPCS","48883","SPACEBEE-100","PAYLOAD","U","21059E","2023-06-05 07:38:33","954720","15.31068541","0.0005395","97.5934","292.8612","308.621","51.4547","0","999","10757","0.00089971","0.00027002","0","3925691","0 SPACEBEE-100","1 48883U 21059E   23156.31844855  .00027002  00000-0  89971-3 0  9991","2 48883  97.5934 292.8612 0005395 308.6210  51.4547 15.31068541107572","2021-059E","48883","6850.760","94.052","476.321","468.929","0"
"GENERATED VIA SPACETRACK.ORG API","18 SPCS","48883","SPACEBEE-100","PAYLOAD","U","21059E","2023-06-05 20:11:27","353184","15.31100743","0.000535","97.5937","293.396","305.5566","54.5176","0","999","10765","0.00092994","0.00027943","0","3925751","0 SPACEBEE-100","1 48883U 21059E   23156.84128881  .00027943  00000-0  92994-3 0  9996","2 48883  97.5937 293.3960 0005350 305.5566  54.5176 15.31100743107650","2021-059E","48883","6850.664","94.050","476.194","468.864","0"
"GENERATED VIA SPACETRACK.ORG API","18 SPCS","48883","SPACEBEE-100","PAYLOAD","U","21059E","2023-06-06 10:18:26","385120","15.31134682","0.0005404","97.5936","293.9981","303.5892","56.4832","0","999","10774","0.00094383","0.00028393","0","3926325","0 SPACEBEE-100","1 48883U 21059E   23157.42947205  .00028393  00000-0  94383-3 0  9994","2 48883  97.5936 293.9981 0005404 303.5892  56.4832 15.31134682107747","2021-059E","48883","6850.563","94.048","476.130","468.726","0"
"GENERATED VIA SPACETRACK.ORG API","18 SPCS","48883","SPACEBEE-100","PAYLOAD","U","21059E","2023-06-06 22:51:17","890560","15.31166177","0.000542","97.5937","294.5331","301.0723","58.9985","0","999","10782","0.00096497","0.00029062","0","3926782","0 SPACEBEE-100","1 48883U 21059E   23157.95229040  .00029062  00000-0  96497-3 0  9994","2 48883  97.5937 294.5331 0005420 301.0723  58.9985 15.31166177107827","2021-059E","48883","6850.469","94.046","476.047","468.621","0"
"GENERATED VIA SPACETRACK.ORG API","18 SPCS","48883","SPACEBEE-100","PAYLOAD","U","21059E","2023-06-07 08:15:55","950912","15.31187714","0.0005484","97.5938","294.9346","299.7773","60.2921","0","999","10788","0.00094646","0.0002852","0","3927174","0 SPACEBEE-100","1 48883U 21059E   23158.34439758  .00028520  00000-0  94646-3 0  9999","2 48883  97.5938 294.9346 0005484 299.7773  60.2921 15.31187714107888","2021-059E","48883","6850.405","94.045","476.026","468.513","0"
